STARLINK-36875          
1 68300U 26057G   26086.83335647 -.00964405  32110-3 -15115-2 0  9993
2 68300  97.2813 209.8601 0001185  83.7050 139.0777 16.04020257  2129
STARLINK-37099          
1 68301U 26057H   26086.83335647 -.00954034  31572-3 -14721-2 0  9994
2 68301  97.2811 209.8626 0001231  84.8574 142.4332 16.04280736  1955
STARLINK-37007          
1 68302U 26057J   26086.83335647 -.00929279  30180-3 -14080-2 0  9990
2 68302  97.2807 209.8644 0001110  76.2641 156.2424 16.04581250  2172
STARLINK-36300          
1 68303U 26057K   26086.83335647 -.00932091  30297-3 -14244-2 0  9998
2 68303  97.2810 209.8635 0001145  84.1299 145.9809 16.04439367  2221
STARLINK-36849          
1 68304U 26057L   26086.83335647 -.00955891  31847-3 -14379-2 0  9993
2 68304  97.2809 209.8655 0001231  87.7950 146.5541 16.04704536  2123
STARLINK-36277          
1 68305U 26057M   26086.83335647 -.00955749  31941-3 -14148-2 0  9995
2 68305  97.2804 209.8671 0001175  91.1159 147.5980 16.04971321  2287
STARLINK-36307          
1 68306U 26057N   26086.83335647 -.00938805  30839-3 -14036-2 0  9991
2 68306  97.2808 209.8663 0001214  77.1548 159.0047 16.04804595  2227
STARLINK-36264          
1 68307U 26057P   26086.83335647 -.00924539  30093-3 -13556-2 0  9999
2 68307  97.2806 209.8683 0001172  73.4674 167.9955 16.05125069  2285
STARLINK-37138          
1 68308U 26057Q   26086.83335647 -.00924102  30100-3 -13474-2 0  9994
2 68308  97.2801 209.8685 0001171  72.6321 170.3900 16.05217427  1953
STARLINK-37149          
1 68309U 26057R   26086.75002314 -.00901274  28831-3 -12927-2 0  9993
2 68309  97.2799 209.7779 0001243  70.8032  52.9626 16.05484438  2052
STARLINK-37148          
1 68310U 26057S   26086.83335647 -.00915437  29720-3 -13037-2 0  9999
2 68310  97.2799 209.8714 0001149  74.9639 174.3503 16.05604347  2176
STARLINK-37140          
1 68311U 26057T   26086.75002314 -.00911547  29496-3 -12960-2 0  9995
2 68311  97.2800 209.7791 0001166  83.8893  42.0956 16.05631123  2326
