CCSDS_OMM_VERS = 2.0
CREATION_DATE  = 
ORIGINATOR     = 

OBJECT_NAME    = STARLINK-36875
OBJECT_ID      = 2026-057G
CENTER_NAME    = EARTH
REF_FRAME      = TEME
TIME_SYSTEM    = UTC
MEAN_ELEMENT_THEORY = SGP/SGP4

EPOCH          = 2026-03-27T20:00:01.999008
MEAN_MOTION    = 16.04020257
ECCENTRICITY   = .0001185
INCLINATION    = 97.2813
RA_OF_ASC_NODE = 209.8601
ARG_OF_PERICENTER = 83.7050
MEAN_ANOMALY   = 139.0777

EPHEMERIS_TYPE = 0
CLASSIFICATION_TYPE = U
NORAD_CAT_ID   = 68300
ELEMENT_SET_NO = 999
REV_AT_EPOCH   = 212
BSTAR          = -.15115E-2
MEAN_MOTION_DOT = -.964405E-2
MEAN_MOTION_DDOT = .3211E-3

CCSDS_OMM_VERS = 2.0
CREATION_DATE  = 
ORIGINATOR     = 

OBJECT_NAME    = STARLINK-37099
OBJECT_ID      = 2026-057H
CENTER_NAME    = EARTH
REF_FRAME      = TEME
TIME_SYSTEM    = UTC
MEAN_ELEMENT_THEORY = SGP/SGP4

EPOCH          = 2026-03-27T20:00:01.999008
MEAN_MOTION    = 16.04280736
ECCENTRICITY   = .0001231
INCLINATION    = 97.2811
RA_OF_ASC_NODE = 209.8626
ARG_OF_PERICENTER = 84.8574
MEAN_ANOMALY   = 142.4332

EPHEMERIS_TYPE = 0
CLASSIFICATION_TYPE = U
NORAD_CAT_ID   = 68301
ELEMENT_SET_NO = 999
REV_AT_EPOCH   = 195
BSTAR          = -.14721E-2
MEAN_MOTION_DOT = -.954034E-2
MEAN_MOTION_DDOT = .31572E-3

CCSDS_OMM_VERS = 2.0
CREATION_DATE  = 
ORIGINATOR     = 

OBJECT_NAME    = STARLINK-37007
OBJECT_ID      = 2026-057J
CENTER_NAME    = EARTH
REF_FRAME      = TEME
TIME_SYSTEM    = UTC
MEAN_ELEMENT_THEORY = SGP/SGP4

EPOCH          = 2026-03-27T20:00:01.999008
MEAN_MOTION    = 16.04581250
ECCENTRICITY   = .000111
INCLINATION    = 97.2807
RA_OF_ASC_NODE = 209.8644
ARG_OF_PERICENTER = 76.2641
MEAN_ANOMALY   = 156.2424

EPHEMERIS_TYPE = 0
CLASSIFICATION_TYPE = U
NORAD_CAT_ID   = 68302
ELEMENT_SET_NO = 999
REV_AT_EPOCH   = 217
BSTAR          = -.1408E-2
MEAN_MOTION_DOT = -.929279E-2
MEAN_MOTION_DDOT = .3018E-3

CCSDS_OMM_VERS = 2.0
CREATION_DATE  = 
ORIGINATOR     = 

OBJECT_NAME    = STARLINK-36300
OBJECT_ID      = 2026-057K
CENTER_NAME    = EARTH
REF_FRAME      = TEME
TIME_SYSTEM    = UTC
MEAN_ELEMENT_THEORY = SGP/SGP4

EPOCH          = 2026-03-27T20:00:01.999008
MEAN_MOTION    = 16.04439367
ECCENTRICITY   = .0001145
INCLINATION    = 97.2810
RA_OF_ASC_NODE = 209.8635
ARG_OF_PERICENTER = 84.1299
MEAN_ANOMALY   = 145.9809

EPHEMERIS_TYPE = 0
CLASSIFICATION_TYPE = U
NORAD_CAT_ID   = 68303
ELEMENT_SET_NO = 999
REV_AT_EPOCH   = 222
BSTAR          = -.14244E-2
MEAN_MOTION_DOT = -.932091E-2
MEAN_MOTION_DDOT = .30297E-3

CCSDS_OMM_VERS = 2.0
CREATION_DATE  = 
ORIGINATOR     = 

OBJECT_NAME    = STARLINK-36849
OBJECT_ID      = 2026-057L
CENTER_NAME    = EARTH
REF_FRAME      = TEME
TIME_SYSTEM    = UTC
MEAN_ELEMENT_THEORY = SGP/SGP4

EPOCH          = 2026-03-27T20:00:01.999008
MEAN_MOTION    = 16.04704536
ECCENTRICITY   = .0001231
INCLINATION    = 97.2809
RA_OF_ASC_NODE = 209.8655
ARG_OF_PERICENTER = 87.7950
MEAN_ANOMALY   = 146.5541

EPHEMERIS_TYPE = 0
CLASSIFICATION_TYPE = U
NORAD_CAT_ID   = 68304
ELEMENT_SET_NO = 999
REV_AT_EPOCH   = 212
BSTAR          = -.14379E-2
MEAN_MOTION_DOT = -.955891E-2
MEAN_MOTION_DDOT = .31847E-3

CCSDS_OMM_VERS = 2.0
CREATION_DATE  = 
ORIGINATOR     = 

OBJECT_NAME    = STARLINK-36277
OBJECT_ID      = 2026-057M
CENTER_NAME    = EARTH
REF_FRAME      = TEME
TIME_SYSTEM    = UTC
MEAN_ELEMENT_THEORY = SGP/SGP4

EPOCH          = 2026-03-27T20:00:01.999008
MEAN_MOTION    = 16.04971321
ECCENTRICITY   = .0001175
INCLINATION    = 97.2804
RA_OF_ASC_NODE = 209.8671
ARG_OF_PERICENTER = 91.1159
MEAN_ANOMALY   = 147.5980

EPHEMERIS_TYPE = 0
CLASSIFICATION_TYPE = U
NORAD_CAT_ID   = 68305
ELEMENT_SET_NO = 999
REV_AT_EPOCH   = 228
BSTAR          = -.14148E-2
MEAN_MOTION_DOT = -.955749E-2
MEAN_MOTION_DDOT = .31941E-3

CCSDS_OMM_VERS = 2.0
CREATION_DATE  = 
ORIGINATOR     = 

OBJECT_NAME    = STARLINK-36307
OBJECT_ID      = 2026-057N
CENTER_NAME    = EARTH
REF_FRAME      = TEME
TIME_SYSTEM    = UTC
MEAN_ELEMENT_THEORY = SGP/SGP4

EPOCH          = 2026-03-27T20:00:01.999008
MEAN_MOTION    = 16.04804595
ECCENTRICITY   = .0001214
INCLINATION    = 97.2808
RA_OF_ASC_NODE = 209.8663
ARG_OF_PERICENTER = 77.1548
MEAN_ANOMALY   = 159.0047

EPHEMERIS_TYPE = 0
CLASSIFICATION_TYPE = U
NORAD_CAT_ID   = 68306
ELEMENT_SET_NO = 999
REV_AT_EPOCH   = 222
BSTAR          = -.14036E-2
MEAN_MOTION_DOT = -.938805E-2
MEAN_MOTION_DDOT = .30839E-3

CCSDS_OMM_VERS = 2.0
CREATION_DATE  = 
ORIGINATOR     = 

OBJECT_NAME    = STARLINK-36264
OBJECT_ID      = 2026-057P
CENTER_NAME    = EARTH
REF_FRAME      = TEME
TIME_SYSTEM    = UTC
MEAN_ELEMENT_THEORY = SGP/SGP4

EPOCH          = 2026-03-27T20:00:01.999008
MEAN_MOTION    = 16.05125069
ECCENTRICITY   = .0001172
INCLINATION    = 97.2806
RA_OF_ASC_NODE = 209.8683
ARG_OF_PERICENTER = 73.4674
MEAN_ANOMALY   = 167.9955

EPHEMERIS_TYPE = 0
CLASSIFICATION_TYPE = U
NORAD_CAT_ID   = 68307
ELEMENT_SET_NO = 999
REV_AT_EPOCH   = 228
BSTAR          = -.13556E-2
MEAN_MOTION_DOT = -.924539E-2
MEAN_MOTION_DDOT = .30093E-3

CCSDS_OMM_VERS = 2.0
CREATION_DATE  = 
ORIGINATOR     = 

OBJECT_NAME    = STARLINK-37138
OBJECT_ID      = 2026-057Q
CENTER_NAME    = EARTH
REF_FRAME      = TEME
TIME_SYSTEM    = UTC
MEAN_ELEMENT_THEORY = SGP/SGP4

EPOCH          = 2026-03-27T20:00:01.999008
MEAN_MOTION    = 16.05217427
ECCENTRICITY   = .0001171
INCLINATION    = 97.2801
RA_OF_ASC_NODE = 209.8685
ARG_OF_PERICENTER = 72.6321
MEAN_ANOMALY   = 170.3900

EPHEMERIS_TYPE = 0
CLASSIFICATION_TYPE = U
NORAD_CAT_ID   = 68308
ELEMENT_SET_NO = 999
REV_AT_EPOCH   = 195
BSTAR          = -.13474E-2
MEAN_MOTION_DOT = -.924102E-2
MEAN_MOTION_DDOT = .301E-3

CCSDS_OMM_VERS = 2.0
CREATION_DATE  = 
ORIGINATOR     = 

OBJECT_NAME    = STARLINK-37149
OBJECT_ID      = 2026-057R
CENTER_NAME    = EARTH
REF_FRAME      = TEME
TIME_SYSTEM    = UTC
MEAN_ELEMENT_THEORY = SGP/SGP4

EPOCH          = 2026-03-27T18:00:01.999296
MEAN_MOTION    = 16.05484438
ECCENTRICITY   = .0001243
INCLINATION    = 97.2799
RA_OF_ASC_NODE = 209.7779
ARG_OF_PERICENTER = 70.8032
MEAN_ANOMALY   = 52.9626

EPHEMERIS_TYPE = 0
CLASSIFICATION_TYPE = U
NORAD_CAT_ID   = 68309
ELEMENT_SET_NO = 999
REV_AT_EPOCH   = 205
BSTAR          = -.12927E-2
MEAN_MOTION_DOT = -.901274E-2
MEAN_MOTION_DDOT = .28831E-3

CCSDS_OMM_VERS = 2.0
CREATION_DATE  = 
ORIGINATOR     = 

OBJECT_NAME    = STARLINK-37148
OBJECT_ID      = 2026-057S
CENTER_NAME    = EARTH
REF_FRAME      = TEME
TIME_SYSTEM    = UTC
MEAN_ELEMENT_THEORY = SGP/SGP4

EPOCH          = 2026-03-27T20:00:01.999008
MEAN_MOTION    = 16.05604347
ECCENTRICITY   = .0001149
INCLINATION    = 97.2799
RA_OF_ASC_NODE = 209.8714
ARG_OF_PERICENTER = 74.9639
MEAN_ANOMALY   = 174.3503

EPHEMERIS_TYPE = 0
CLASSIFICATION_TYPE = U
NORAD_CAT_ID   = 68310
ELEMENT_SET_NO = 999
REV_AT_EPOCH   = 217
BSTAR          = -.13037E-2
MEAN_MOTION_DOT = -.915437E-2
MEAN_MOTION_DDOT = .2972E-3

CCSDS_OMM_VERS = 2.0
CREATION_DATE  = 
ORIGINATOR     = 

OBJECT_NAME    = STARLINK-37140
OBJECT_ID      = 2026-057T
CENTER_NAME    = EARTH
REF_FRAME      = TEME
TIME_SYSTEM    = UTC
MEAN_ELEMENT_THEORY = SGP/SGP4

EPOCH          = 2026-03-27T18:00:01.999296
MEAN_MOTION    = 16.05631123
ECCENTRICITY   = .0001166
INCLINATION    = 97.2800
RA_OF_ASC_NODE = 209.7791
ARG_OF_PERICENTER = 83.8893
MEAN_ANOMALY   = 42.0956

EPHEMERIS_TYPE = 0
CLASSIFICATION_TYPE = U
NORAD_CAT_ID   = 68311
ELEMENT_SET_NO = 999
REV_AT_EPOCH   = 232
BSTAR          = -.1296E-2
MEAN_MOTION_DOT = -.911547E-2
MEAN_MOTION_DDOT = .29496E-3

